{
  "type": "FeatureCollection",
  "features": [
    {
      "type": "Feature",
      "properties": {
        "norad_id": 33412,
        "name": "COSMO-SKYMED 3",
        "group": "resource",
        "lat": -69.53984263175849,
        "lon": -142.14099481297583,
        "alt_km": 561.8288522088005,
        "timestamp": "2025-12-11T18:59:45.722947+00:00",
        "meta_object_name": "COSMO-SKYMED 3",
        "meta_object_id": "2008-054A",
        "meta_epoch": "2025-12-11T06:32:57.740928",
        "meta_mean_motion": 15.0532932,
        "meta_eccentricity": 0.00158762,
        "meta_inclination": 97.8465,
        "meta_ra_of_asc_node": 195.6393,
        "meta_arg_of_pericenter": 178.9467,
        "meta_mean_anomaly": 181.1795,
        "meta_ephemeris_type": 0,
        "meta_classification_type": "U",
        "meta_norad_cat_id": 33412,
        "meta_element_set_no": 999,
        "meta_rev_at_epoch": 92865,
        "meta_bstar": 0.00046524048,
        "meta_mean_motion_dot": 6.615e-05,
        "meta_mean_motion_ddot": 0,
        "tle_line1": "1 33412U 08054A   25345.27289052  .00006615  00000+0  46524-3 0  9995",
        "tle_line2": "2 33412  97.8465 195.6393 0015876 178.9467 181.1795 15.05329320928651"
      },
      "geometry": {
        "type": "Point",
        "coordinates": [
          -142.14099481297583,
          -69.53984263175849
        ]
      }
    },
    {
      "type": "Feature",
      "properties": {
        "norad_id": 33446,
        "name": "YAOGAN-4",
        "group": "resource",
        "lat": -12.521901470196214,
        "lon": -82.32863500047378,
        "alt_km": 616.412758036382,
        "timestamp": "2025-12-11T18:59:45.722958+00:00",
        "meta_object_name": "YAOGAN-4",
        "meta_object_id": "2008-061A",
        "meta_epoch": "2025-12-11T06:05:43.265472",
        "meta_mean_motion": 14.82675923,
        "meta_eccentricity": 0.00136886,
        "meta_inclination": 97.918,
        "meta_ra_of_asc_node": 275.3679,
        "meta_arg_of_pericenter": 328.5714,
        "meta_mean_anomaly": 31.4681,
        "meta_ephemeris_type": 0,
        "meta_classification_type": "U",
        "meta_norad_cat_id": 33446,
        "meta_element_set_no": 999,
        "meta_rev_at_epoch": 91781,
        "meta_bstar": 0.00032167115,
        "meta_mean_motion_dot": 2.544e-05,
        "meta_mean_motion_ddot": 0,
        "tle_line1": "1 33446U 08061A   25345.25397298  .00002544  00000+0  32167-3 0  9995",
        "tle_line2": "2 33446  97.9180 275.3679 0013688 328.5714  31.4681 14.82675923917817"
      },
      "geometry": {
        "type": "Point",
        "coordinates": [
          -82.32863500047378,
          -12.521901470196214
        ]
      }
    },
    {
      "type": "Feature",
      "properties": {
        "norad_id": 33492,
        "name": "GOSAT (IBUKI)",
        "group": "resource",
        "lat": 81.85373933390201,
        "lon": -2.8359319462970594,
        "alt_km": 660.7603639105782,
        "timestamp": "2025-12-11T18:59:45.722970+00:00",
        "meta_object_name": "GOSAT (IBUKI)",
        "meta_object_id": "2009-002A",
        "meta_epoch": "2025-12-11T07:07:42.238560",
        "meta_mean_motion": 14.67551336,
        "meta_eccentricity": 9.462e-05,
        "meta_inclination": 98.0768,
        "meta_ra_of_asc_node": 93.9203,
        "meta_arg_of_pericenter": 90.3485,
        "meta_mean_anomaly": 269.7828,
        "meta_ephemeris_type": 0,
        "meta_classification_type": "U",
        "meta_norad_cat_id": 33492,
        "meta_element_set_no": 999,
        "meta_rev_at_epoch": 90390,
        "meta_bstar": 0.00028025469,
        "meta_mean_motion_dot": 1.542e-05,
        "meta_mean_motion_ddot": 0,
        "tle_line1": "1 33492U 09002A   25345.29701665  .00001542  00000+0  28025-3 0  9998",
        "tle_line2": "2 33492  98.0768  93.9203 0000946  90.3485 269.7828 14.67551336903909"
      },
      "geometry": {
        "type": "Point",
        "coordinates": [
          -2.8359319462970594,
          81.85373933390201
        ]
      }
    },
    {
      "type": "Feature",
      "properties": {
        "norad_id": 35681,
        "name": "DEIMOS-1",
        "group": "resource",
        "lat": 35.897545087194075,
        "lon": -27.930306391461137,
        "alt_km": 642.0049689490879,
        "timestamp": "2025-12-11T18:59:45.722982+00:00",
        "meta_object_name": "DEIMOS-1",
        "meta_object_id": "2009-041A",
        "meta_epoch": "2025-12-11T06:57:00.348768",
        "meta_mean_motion": 14.74949272,
        "meta_eccentricity": 0.00027688,
        "meta_inclination": 97.7151,
        "meta_ra_of_asc_node": 145.9602,
        "meta_arg_of_pericenter": 81.5121,
        "meta_mean_anomaly": 278.6403,
        "meta_ephemeris_type": 0,
        "meta_classification_type": "U",
        "meta_norad_cat_id": 35681,
        "meta_element_set_no": 999,
        "meta_rev_at_epoch": 87918,
        "meta_bstar": 0.00019503998,
        "meta_mean_motion_dot": 1.263e-05,
        "meta_mean_motion_ddot": 0,
        "tle_line1": "1 35681U 09041A   25345.28958737  .00001263  00000+0  19504-3 0  9998",
        "tle_line2": "2 35681  97.7151 145.9602 0002768  81.5121 278.6403 14.74949272879185"
      },
      "geometry": {
        "type": "Point",
        "coordinates": [
          -27.930306391461137,
          35.897545087194075
        ]
      }
    },
    {
      "type": "Feature",
      "properties": {
        "norad_id": 35682,
        "name": "DUBAISAT-1",
        "group": "resource",
        "lat": 77.00819933789037,
        "lon": 79.04640508752885,
        "alt_km": 642.7266994455349,
        "timestamp": "2025-12-11T18:59:45.722994+00:00",
        "meta_object_name": "DUBAISAT-1",
        "meta_object_id": "2009-041B",
        "meta_epoch": "2025-12-11T07:14:10.175424",
        "meta_mean_motion": 14.74598828,
        "meta_eccentricity": 0.00096506,
        "meta_inclination": 97.9787,
        "meta_ra_of_asc_node": 116.0024,
        "meta_arg_of_pericenter": 319.5955,
        "meta_mean_anomaly": 40.4536,
        "meta_ephemeris_type": 0,
        "meta_classification_type": "U",
        "meta_norad_cat_id": 35682,
        "meta_element_set_no": 999,
        "meta_rev_at_epoch": 87740,
        "meta_bstar": 0.00038016127,
        "meta_mean_motion_dot": 2.485e-05,
        "meta_mean_motion_ddot": 0,
        "tle_line1": "1 35682U 09041B   25345.30150666  .00002485  00000+0  38016-3 0  9993",
        "tle_line2": "2 35682  97.9787 116.0024 0009650 319.5955  40.4536 14.74598828877408"
      },
      "geometry": {
        "type": "Point",
        "coordinates": [
          79.04640508752885,
          77.00819933789037
        ]
      }
    },
    {
      "type": "Feature",
      "properties": {
        "norad_id": 35931,
        "name": "OCEANSAT-2",
        "group": "resource",
        "lat": 26.64363784069835,
        "lon": 170.64844665240977,
        "alt_km": 897.1778248199616,
        "timestamp": "2025-12-11T18:59:45.723006+00:00",
        "meta_object_name": "OCEANSAT-2",
        "meta_object_id": "2009-051A",
        "meta_epoch": "2025-12-11T07:58:29.650368",
        "meta_mean_motion": 13.99625488,
        "meta_eccentricity": 0.00162631,
        "meta_inclination": 98.2224,
        "meta_ra_of_asc_node": 346.0757,
        "meta_arg_of_pericenter": 48.7406,
        "meta_mean_anomaly": 311.5159,
        "meta_ephemeris_type": 0,
        "meta_classification_type": "U",
        "meta_norad_cat_id": 35931,
        "meta_element_set_no": 999,
        "meta_rev_at_epoch": 85305,
        "meta_bstar": -2.4034576e-05,
        "meta_mean_motion_dot": -7.3e-07,
        "meta_mean_motion_ddot": 0,
        "tle_line1": "1 35931U 09051A   25345.33228762 -.00000073  00000+0 -24035-4 0  9997",
        "tle_line2": "2 35931  98.2224 346.0757 0016263  48.7406 311.5159 13.99625488853050"
      },
      "geometry": {
        "type": "Point",
        "coordinates": [
          170.64844665240977,
          26.64363784069835
        ]
      }
    },
    {
      "type": "Feature",
      "properties": {
        "norad_id": 35946,
        "name": "WORLDVIEW-2 (WV-2)",
        "group": "resource",
        "lat": 35.24389426492624,
        "lon": -117.06322264706358,
        "alt_km": 762.9065295097616,
        "timestamp": "2025-12-11T18:59:45.723018+00:00",
        "meta_object_name": "WORLDVIEW-2 (WV-2)",
        "meta_object_id": "2009-055A",
        "meta_epoch": "2025-12-11T04:57:54.584064",
        "meta_mean_motion": 14.37651686,
        "meta_eccentricity": 0.00053173,
        "meta_inclination": 98.4762,
        "meta_ra_of_asc_node": 56.3122,
        "meta_arg_of_pericenter": 70.637,
        "meta_mean_anomaly": 289.5392,
        "meta_ephemeris_type": 0,
        "meta_classification_type": "U",
        "meta_norad_cat_id": 35946,
        "meta_element_set_no": 999,
        "meta_rev_at_epoch": 84863,
        "meta_bstar": 0.00010770429,
        "meta_mean_motion_dot": 2.8e-06,
        "meta_mean_motion_ddot": 0,
        "tle_line1": "1 35946U 09055A   25345.20688176  .00000280  00000+0  10770-3 0  9990",
        "tle_line2": "2 35946  98.4762  56.3122 0005317  70.6370 289.5392 14.37651686848637"
      },
      "geometry": {
        "type": "Point",
        "coordinates": [
          -117.06322264706358,
          35.24389426492624
        ]
      }
    }
  ]
}